NOAA 15                 
1 25338U 98030A   20255.66927358  .00000024  00000-0  28548-4 0  9998
2 25338  98.7129 280.2618 0010642  18.3750 341.7812 14.25988992161510
DMSP 5D-3 F15 (USA 147) 
1 25991U 99067A   20255.71144653 -.00000108  00000-0 -31442-4 0  9991
2 25991  98.9790 227.7736 0009199 211.4062 321.7521 14.16472354 72656
METEOSAT-8 (MSG-1)      
1 27509U 02040B   20255.12869286  .00000137  00000-0  00000+0 0  9995
2 27509   6.8706  53.7096 0001641 155.0274 229.6401  1.00268603 66145
DMSP 5D-3 F16 (USA 172) 
1 28054U 03048A   20255.70997685 -.00000070  00000-0 -13336-4 0  9998
2 28054  98.9207 234.5051 0007334 347.1755 355.5662 14.13645999872072
NOAA 18                 
1 28654U 05018A   20255.65168473  .00000065  00000-0  59701-4 0  9990
2 28654  99.0359 312.8525 0013949 352.5988   7.4976 14.12538341789171
METEOSAT-9 (MSG-2)      
1 28912U 05049B   20255.33631435  .00000015  00000-0  00000+0 0  9997
2 28912   4.6018  69.7658 0000670  44.7421   0.7463  1.00268801 53979
FORMOSAT-3 FM6          
1 29047U 06011A   20255.52491049 -.00000099  00000-0 -22194-4 0  9990
2 29047  71.9756 294.3145 0052439 273.4607  86.0532 14.28745536753610
FORMOSAT-3 FM1          
1 29048U 06011B   20255.61575238  .00000039  00000-0  31803-4 0  9993
2 29048  71.9663 204.9348 0045321 233.0499 126.6483 14.28715740756111
FORMOSAT-3 FM5          
1 29049U 06011C   20255.54193794 -.00000030  00000-0  45201-5 0  9999
2 29049  72.0227  17.2229 0036742 258.3544 101.3468 14.28795475751897
FORMOSAT-3 FM3          
1 29050U 06011D   20255.12478949  .00000067  00000-0  24416-4 0  9996
2 29050  72.0163 155.4137 0049507 171.3026 188.8997 14.58944416768926
FORMOSAT-3 FM4          
1 29051U 06011E   20255.47025779  .00000046  00000-0  33838-4 0  9999
2 29051  72.0034 279.2613 0066769 137.4247 223.2094 14.28828170754477
FORMOSAT-3 FM2          
1 29052U 06011F   20255.53349956  .00000040  00000-0  32021-4 0  9990
2 29052  72.0368 353.5938 0041209 218.9105 140.9065 14.28934274751994
EWS-G1 (GOES 13)        
1 29155U 06018A   20255.49157949  .00000035  00000-0  00000-0 0  9997
2 29155   0.0839 149.3657 0008458  55.0940  24.7396  1.00273817 22269
METOP-A                 
1 29499U 06044A   20255.68181975 -.00000019  00000-0  10593-4 0  9999
2 29499  98.5147 299.4814 0001468  72.3071  90.8278 14.21489095721136
DMSP 5D-3 F17 (USA 191) 
1 29522U 06050A   20255.67130251  .00000011  00000-0  28816-4 0  9991
2 29522  98.8002 270.7675 0008776 295.4544  64.5721 14.14016127714918
FENGYUN 3A              
1 32958U 08026A   20255.68192902  .00000003  00000-0  21056-4 0  9995
2 32958  98.4140 236.9831 0009944  87.2803 272.9512 14.18632767637055
FENGYUN 2E              
1 33463U 08066A   20255.87248360 -.00000201  00000-0  00000+0 0  9994
2 33463   4.5168  68.2556 0002306 288.1709  35.3518  1.00265637 42981
NOAA 19                 
1 33591U 09005A   20255.66168758  .00000035  00000-0  44386-4 0  9993
2 33591  99.1970 263.2562 0013758 190.2679 169.8212 14.12430915597563
GOES 14                 
1 35491U 09033A   20255.57502583 -.00000096  00000-0  00000-0 0  9992
2 35491   0.3927 271.1586 0013125 302.2459 240.1990  1.00273258 41011
METEOR-M 1              
1 35865U 09049A   20255.55782463  .00000016  00000-0  26077-4 0  9996
2 35865  98.4460 238.9668 0001498 329.0050  31.1040 14.22248753570158
DMSP 5D-3 F18 (USA 210) 
1 35951U 09057A   20255.69519584  .00000067  00000-0  58014-4 0  9990
2 35951  98.6515 242.7107 0012087 118.9896 241.2490 14.13298540562183
GOES 15                 
1 36411U 10008A   20255.66914076  .00000051  00000-0  00000+0 0  9992
2 36411   0.0815 110.0215 0002012 327.8845  26.0292  1.00264915 38564
COMS 1                  
1 36744U 10032A   20255.50952128 -.00000347  00000-0  00000-0 0  9991
2 36744   0.0142 112.8418 0000657  78.2836 111.4469  1.00273510 29983
FENGYUN 3B              
1 37214U 10059A   20255.91043523 -.00000002  00000-0  22240-4 0  9990
2 37214  99.0527 239.0094 0017577  25.1890 335.0147 14.15957048509911
SUOMI NPP               
1 37849U 11061A   20255.67677630  .00000003  00000-0  22045-4 0  9996
2 37849  98.7398 192.4572 0001300  64.6621   1.5430 14.19543680459851
FENGYUN 2F              
1 38049U 12002A   20255.57349403 -.00000360  00000-0  00000-0 0  9998
2 38049   2.2564  83.2788 0000908  83.2158 143.0213  1.00263116 31788
METEOSAT-10 (MSG-3)     
1 38552U 12035B   20255.33771014  .00000063  00000-0  00000-0 0  9993
2 38552   1.3355 345.2224 0001300 153.9377 342.9681  1.00279676 30119
METOP-B                 
1 38771U 12049A   20255.71667872 -.00000027  00000-0  75696-5 0  9998
2 38771  98.6838 313.6742 0002170 106.7466 329.4099 14.21503923414270
FENGYUN 3C              
1 39260U 13052A   20255.70140256 -.00000033  00000-0  43829-5 0  9998
2 39260  98.5423 302.5793 0010458 333.5850  26.4791 14.15844855360819
METEOR-M 2              
1 40069U 14037A   20255.88940344 -.00000029  00000-0  57636-5 0  9992
2 40069  98.4960 290.1294 0006516  40.1789 319.9865 14.20675025320481
HIMAWARI-8              
1 40267U 14060A   20255.36388090 -.00000278  00000-0  00000+0 0  9998
2 40267   0.0238 213.2017 0001102 344.8925  64.3891  1.00272314 21755
FENGYUN 2G              
1 40367U 14090A   20255.57096419 -.00000306  00000-0  00000-0 0  9999
2 40367   2.2827  93.4490 0002168 308.5774 254.0774  1.00277225 20932
METEOSAT-11 (MSG-4)     
1 40732U 15034A   20255.33596542 -.00000002  00000-0  00000-0 0  9993
2 40732   0.6406 270.9635 0002247 249.5355 312.0880  1.00260826 18932
ELEKTRO-L 2             
1 41105U 15074A   20255.40470733 -.00000118  00000-0  00000-0 0  9991
2 41105   1.3997  96.2205 0003020 101.4246 284.4711  1.00273780 17417
HIMAWARI-9              
1 41836U 16064A   20255.68243545 -.00000279  00000-0  00000+0 0  9998
2 41836   0.0194 152.1085 0000858  73.9307 151.5540  1.00268271 14205
GOES 16                 
1 41866U 16071A   20255.53615706 -.00000251  00000-0  00000-0 0  9996
2 41866   0.0279 110.2246 0000881 131.6400 226.9956  1.00271591 14014
FENGYUN 4A              
1 41882U 16077A   20255.57201102 -.00000333  00000-0  00000-0 0  9996
2 41882   0.1481  89.4006 0003986  44.4708 167.7508  1.00268643 13872
CYGFM05                 
1 41884U 16078A   20255.36956693  .00000266  00000-0  15826-4 0  9998
2 41884  34.9554 246.2514 0015230  93.3521 266.8932 15.14678844207143
CYGFM04                 
1 41885U 16078B   20255.37664608  .00000248  00000-0  14614-4 0  9996
2 41885  34.9486 238.9375 0013637 104.9815 255.2407 15.15192097207214
CYGFM02                 
1 41886U 16078C   20255.36952061  .00000251  00000-0  14784-4 0  9991
2 41886  34.9577 240.7733 0014357 100.4373 259.7957 15.15190932207209
CYGFM01                 
1 41887U 16078D   20255.41476891  .00000249  00000-0  14951-4 0  9993
2 41887  34.9522 247.2398 0015701  94.3337 265.9169 15.14491026207137
CYGFM08                 
1 41888U 16078E   20255.38290735  .00000244  00000-0  14544-4 0  9994
2 41888  34.9492 242.8593 0014881 101.7847 258.4534 15.14907163207169
CYGFM06                 
1 41889U 16078F   20255.34875911  .00000284  00000-0  16516-4 0  9991
2 41889  34.9572 239.5937 0013299 100.3291 259.8920 15.15185401207207
CYGFM07                 
1 41890U 16078G   20255.39310552  .00000290  00000-0  16828-4 0  9996
2 41890  34.9510 238.3715 0013088 104.2856 255.9310 15.15184023207218
CYGFM03                 
1 41891U 16078H   20255.32288980  .00000270  00000-0  15809-4 0  9995
2 41891  34.9542 239.0785 0012569 102.2881 257.9238 15.15179287207204
FENGYUN 3D              
1 43010U 17072A   20255.55841187 -.00000009  00000-0  16471-4 0  9991
2 43010  98.7538 193.9242 0001212 145.8845 214.2406 14.19748119146411
NOAA 20                 
1 43013U 17073A   20255.69859311 -.00000010  00000-0  16108-4 0  9997
2 43013  98.7210 192.3235 0001529  87.7944 272.3408 14.19561140145896
GOES 17                 
1 43226U 18022A   20255.66739605  .00000094  00000-0  00000+0 0  9998
2 43226   0.0662 291.6259 0000322 274.4803 248.1131  1.00271030  9331
FENGYUN 2H              
1 43491U 18050A   20255.56695133 -.00000132  00000-0  00000-0 0  9994
2 43491   0.4609 270.1574 0003025 244.0536 120.1108  1.00273041  8405
METOP-C                 
1 43689U 18087A   20255.66888025 -.00000027  00000-0  76853-5 0  9995
2 43689  98.6901 313.9751 0003293  96.6274 263.5279 14.21502239 95844
GEO-KOMPSAT-2A          
1 43823U 18100A   20255.71683678 -.00000347  00000-0  00000+0 0  9994
2 43823   0.0042 179.7041 0001479 313.0057 244.8074  1.00272547  6561
IOD-1 GEMS              
1 44385U 98067QK  20255.32628255  .00016547  00000-0  18543-3 0  9998
2 44385  51.6381 259.7687 0001469 337.8922  22.2009 15.62824639 67912
METEOR-M2 2             
1 44387U 19038A   20255.67108432 -.00000031  00000-0  52167-5 0  9993
2 44387  98.6281 214.0367 0001607  29.8049 330.3221 14.23680823 61807
